start=new Date('2023-02-15T00:00:00.000Z').valueOf();
sats=[{"CLASSIFICATION_TYPE":"U","TLE_LINE1":"1 45662U 20035F   23045.31837103  .00002164  00000-0  16410-3 0  9991","OBJECT_NAME":"STARLINK-1445","REF_FRAME":"TEME","CENTER_NAME":"EARTH","DECAY_DATE":null,"MEAN_ELEMENT_THEORY":"SGP4","PERIOD":"95.592","MEAN_MOTION_DDOT":"0.0000000000000","OBJECT_TYPE":"PAYLOAD","PERIAPSIS":"546.425","COUNTRY_CODE":"US","TIME_SYSTEM":"UTC","EPHEMERIS_TYPE":"0","INCLINATION":"53.0535","TLE_LINE2":"2 45662  53.0535  51.6809 0001146  91.3410 268.7710 15.06398368150012","REV_AT_EPOCH":"15001","MEAN_ANOMALY":"268.7710","APOAPSIS":"548.012","SEMIMAJOR_AXIS":"6925.354","MEAN_MOTION_DOT":"0.00002164","OBJECT_ID":"2020-035F","NORAD_CAT_ID":"45662","EPOCH":"2023-02-14T07:38:27.256992","SITE":"AFETR","RA_OF_ASC_NODE":"51.6809","LAUNCH_DATE":"2020-06-04","GP_ID":"225389867","RCS_SIZE":"LARGE","MEAN_MOTION":"15.06398368","ARG_OF_PERICENTER":"91.3410","ELEMENT_SET_NO":"999","ECCENTRICITY":"0.00011460","FILE":"3791349","BSTAR":"0.00016410000000"},{"OBJECT_NAME":"STARLINK-1446","REF_FRAME":"TEME","CENTER_NAME":"EARTH","TLE_LINE1":"1 45663U 20035G   23045.85283542  .00002208  00000-0  16710-3 0  9995","CLASSIFICATION_TYPE":"U","PERIOD":"95.592","MEAN_MOTION_DDOT":"0.0000000000000","OBJECT_TYPE":"PAYLOAD","DECAY_DATE":null,"MEAN_ELEMENT_THEORY":"SGP4","COUNTRY_CODE":"US","PERIAPSIS":"545.872","TIME_SYSTEM":"UTC","INCLINATION":"53.0541","EPHEMERIS_TYPE":"0","APOAPSIS":"548.576","MEAN_ANOMALY":"267.6798","SEMIMAJOR_AXIS":"6925.359","REV_AT_EPOCH":"15009","TLE_LINE2":"2 45663  53.0541  49.2668 0001952  92.4415 267.6798 15.06396637150097","NORAD_CAT_ID":"45663","EPOCH":"2023-02-14T20:28:04.980288","OBJECT_ID":"2020-035G","MEAN_MOTION_DOT":"0.00002208","LAUNCH_DATE":"2020-06-04","MEAN_MOTION":"15.06396637","RCS_SIZE":"LARGE","GP_ID":"225430484","RA_OF_ASC_NODE":"49.2668","SITE":"AFETR","FILE":"3792084","BSTAR":"0.00016710000000","ELEMENT_SET_NO":"999","ARG_OF_PERICENTER":"92.4415","ECCENTRICITY":"0.00019520"},{"DECAY_DATE":null,"MEAN_ELEMENT_THEORY":"SGP4","PERIOD":"95.590","MEAN_MOTION_DDOT":"0.0000000000000","OBJECT_TYPE":"PAYLOAD","TLE_LINE1":"1 45665U 20035J   23045.48789750  .00024361  00000-0  16473-2 0  9997","CLASSIFICATION_TYPE":"U","CENTER_NAME":"EARTH","OBJECT_NAME":"STARLINK-1448","REF_FRAME":"TEME","EPHEMERIS_TYPE":"0","INCLINATION":"53.0531","COUNTRY_CODE":"US","PERIAPSIS":"545.829","TIME_SYSTEM":"UTC","MEAN_MOTION_DOT":"0.00024361","OBJECT_ID":"2020-035J","EPOCH":"2023-02-14T11:42:34.344000","NORAD_CAT_ID":"45665","TLE_LINE2":"2 45665  53.0531  50.9158 0001860 100.6140 259.5058 15.06431490150036","REV_AT_EPOCH":"15003","APOAPSIS":"548.405","MEAN_ANOMALY":"259.5058","SEMIMAJOR_AXIS":"6925.252","ELEMENT_SET_NO":"999","ARG_OF_PERICENTER":"100.6140","ECCENTRICITY":"0.00018600","FILE":"3791349","BSTAR":"0.00164730000000","SITE":"AFETR","RA_OF_ASC_NODE":"50.9158","LAUNCH_DATE":"2020-06-04","MEAN_MOTION":"15.06431490","RCS_SIZE":"LARGE","GP_ID":"225388872"},{"TLE_LINE1":"1 45666U 20035K   23045.42524478  .00025344  00000-0  17117-2 0  9994","CLASSIFICATION_TYPE":"U","REF_FRAME":"TEME","OBJECT_NAME":"STARLINK-1449","CENTER_NAME":"EARTH","MEAN_ELEMENT_THEORY":"SGP4","DECAY_DATE":null,"MEAN_MOTION_DDOT":"0.0000000000000","OBJECT_TYPE":"PAYLOAD","PERIOD":"95.589","TIME_SYSTEM":"UTC","COUNTRY_CODE":"US","PERIAPSIS":"545.863","EPHEMERIS_TYPE":"0","INCLINATION":"53.0536","REV_AT_EPOCH":"15002","TLE_LINE2":"2 45666  53.0536  51.1681 0001706  87.8620 272.2565 15.06455158150025","SEMIMAJOR_AXIS":"6925.180","APOAPSIS":"548.226","MEAN_ANOMALY":"272.2565","MEAN_MOTION_DOT":"0.00025344","OBJECT_ID":"2020-035K","NORAD_CAT_ID":"45666","EPOCH":"2023-02-14T10:12:21.148992","RA_OF_ASC_NODE":"51.1681","SITE":"AFETR","MEAN_MOTION":"15.06455158","RCS_SIZE":"LARGE","GP_ID":"225390123","LAUNCH_DATE":"2020-06-04","ECCENTRICITY":"0.00017060","ELEMENT_SET_NO":"999","ARG_OF_PERICENTER":"87.8620","BSTAR":"0.00171170000000","FILE":"3791349"},{"REF_FRAME":"TEME","OBJECT_NAME":"STARLINK-1450","CENTER_NAME":"EARTH","TLE_LINE1":"1 45667U 20035L   23045.49434745  .00004482  00000-0  31948-3 0  9998","CLASSIFICATION_TYPE":"U","PERIOD":"95.591","MEAN_MOTION_DDOT":"0.0000000000000","OBJECT_TYPE":"PAYLOAD","DECAY_DATE":null,"MEAN_ELEMENT_THEORY":"SGP4","COUNTRY_CODE":"US","PERIAPSIS":"546.181","TIME_SYSTEM":"UTC","INCLINATION":"53.0530","EPHEMERIS_TYPE":"0","APOAPSIS":"548.161","MEAN_ANOMALY":"266.7086","SEMIMAJOR_AXIS":"6925.306","TLE_LINE2":"2 45667  53.0530  50.9172 0001430  93.4066 266.7086 15.06413829150039","REV_AT_EPOCH":"15003","NORAD_CAT_ID":"45667","EPOCH":"2023-02-14T11:51:51.619680","MEAN_MOTION_DOT":"0.00004482","OBJECT_ID":"2020-035L","LAUNCH_DATE":"2020-06-04","MEAN_MOTION":"15.06413829","GP_ID":"225390368","RCS_SIZE":"LARGE","SITE":"AFETR","RA_OF_ASC_NODE":"50.9172","FILE":"3791349","BSTAR":"0.00031948000000","ELEMENT_SET_NO":"999","ARG_OF_PERICENTER":"93.4066","ECCENTRICITY":"0.00014300"},{"RA_OF_ASC_NODE":"49.8417","SITE":"AFETR","LAUNCH_DATE":"2020-06-04","MEAN_MOTION":"15.06385997","GP_ID":"225429985","RCS_SIZE":"LARGE","ELEMENT_SET_NO":"999","ARG_OF_PERICENTER":"92.5703","ECCENTRICITY":"0.00017770","FILE":"3792084","BSTAR":"-0.00004467400000","TLE_LINE2":"2 45668  53.0542  49.8417 0001777  92.5703 267.5490 15.06385997150081","REV_AT_EPOCH":"15008","APOAPSIS":"548.487","MEAN_ANOMALY":"267.5490","SEMIMAJOR_AXIS":"6925.391","OBJECT_ID":"2020-035M","MEAN_MOTION_DOT":"-0.00000947","EPOCH":"2023-02-14T17:26:16.319328","NORAD_CAT_ID":"45668","COUNTRY_CODE":"US","PERIAPSIS":"546.026","TIME_SYSTEM":"UTC","EPHEMERIS_TYPE":"0","INCLINATION":"53.0542","TLE_LINE1":"1 45668U 20035M   23045.72657777 -.00000947  00000-0 -44674-4 0  9992","CLASSIFICATION_TYPE":"U","OBJECT_NAME":"STARLINK-1451","CENTER_NAME":"EARTH","REF_FRAME":"TEME","DECAY_DATE":null,"MEAN_ELEMENT_THEORY":"SGP4","PERIOD":"95.593","OBJECT_TYPE":"PAYLOAD","MEAN_MOTION_DDOT":"0.0000000000000"},{"TLE_LINE1":"1 45669U 20035N   23045.51003543  .00030453  00000-0  20529-2 0  9990","CLASSIFICATION_TYPE":"U","REF_FRAME":"TEME","CENTER_NAME":"EARTH","OBJECT_NAME":"STARLINK-1452","DECAY_DATE":null,"MEAN_ELEMENT_THEORY":"SGP4","PERIOD":"95.590","OBJECT_TYPE":"PAYLOAD","MEAN_MOTION_DDOT":"0.0000000000000","COUNTRY_CODE":"US","PERIAPSIS":"545.999","TIME_SYSTEM":"UTC","EPHEMERIS_TYPE":"0","INCLINATION":"53.0547","REV_AT_EPOCH":"15004","TLE_LINE2":"2 45669  53.0547  50.8166 0001624  93.5524 266.5650 15.06429363150042","APOAPSIS":"548.248","MEAN_ANOMALY":"266.5650","SEMIMAJOR_AXIS":"6925.259","OBJECT_ID":"2020-035N","MEAN_MOTION_DOT":"0.00030453","NORAD_CAT_ID":"45669","EPOCH":"2023-02-14T12:14:27.061152","SITE":"AFETR","RA_OF_ASC_NODE":"50.8166","LAUNCH_DATE":"2020-06-04","MEAN_MOTION":"15.06429363","GP_ID":"225389373","RCS_SIZE":"LARGE","ELEMENT_SET_NO":"999","ARG_OF_PERICENTER":"93.5524","ECCENTRICITY":"0.00016240","FILE":"3791349","BSTAR":"0.00205290000000"},{"OBJECT_TYPE":"PAYLOAD","MEAN_MOTION_DDOT":"0.0000000000000","PERIOD":"95.593","MEAN_ELEMENT_THEORY":"SGP4","DECAY_DATE":null,"OBJECT_NAME":"STARLINK-1453","REF_FRAME":"TEME","CENTER_NAME":"EARTH","TLE_LINE1":"1 45670U 20035P   23045.63443913  .00025911  00000-0  17525-2 0  9999","CLASSIFICATION_TYPE":"U","INCLINATION":"53.0552","EPHEMERIS_TYPE":"0","TIME_SYSTEM":"UTC","COUNTRY_CODE":"US","PERIAPSIS":"545.716","NORAD_CAT_ID":"45670","EPOCH":"2023-02-14T15:13:35.540832","OBJECT_ID":"2020-035P","MEAN_MOTION_DOT":"0.00025911","SEMIMAJOR_AXIS":"6925.383","APOAPSIS":"548.779","MEAN_ANOMALY":"284.2216","TLE_LINE2":"2 45670  53.0552  20.2601 0002212  75.9018 284.2216 15.06388917150371","REV_AT_EPOCH":"15037","BSTAR":"0.00175250000000","FILE":"3792084","ECCENTRICITY":"0.00022120","ELEMENT_SET_NO":"999","ARG_OF_PERICENTER":"75.9018","MEAN_MOTION":"15.06388917","GP_ID":"225429483","RCS_SIZE":"LARGE","LAUNCH_DATE":"2020-06-04","SITE":"AFETR","RA_OF_ASC_NODE":"20.2601"},{"PERIAPSIS":"546.181","COUNTRY_CODE":"US","TIME_SYSTEM":"UTC","INCLINATION":"53.0552","EPHEMERIS_TYPE":"0","OBJECT_NAME":"STARLINK-1454","REF_FRAME":"TEME","CENTER_NAME":"EARTH","CLASSIFICATION_TYPE":"U","TLE_LINE1":"1 45671U 20035Q   23045.38103082  .00027332  00000-0  18461-2 0  9991","PERIOD":"95.591","OBJECT_TYPE":"PAYLOAD","MEAN_MOTION_DDOT":"0.0000000000000","DECAY_DATE":null,"MEAN_ELEMENT_THEORY":"SGP4","LAUNCH_DATE":"2020-06-04","GP_ID":"225389868","RCS_SIZE":"LARGE","MEAN_MOTION":"15.06411381","SITE":"AFETR","RA_OF_ASC_NODE":"51.3958","FILE":"3791349","BSTAR":"0.00184610000000","ARG_OF_PERICENTER":"101.2092","ELEMENT_SET_NO":"999","ECCENTRICITY":"0.00014400","MEAN_ANOMALY":"258.9059","APOAPSIS":"548.176","SEMIMAJOR_AXIS":"6925.314","REV_AT_EPOCH":"15001","TLE_LINE2":"2 45671  53.0552  51.3958 0001440 101.2092 258.9059 15.06411381150015","NORAD_CAT_ID":"45671","EPOCH":"2023-02-14T09:08:41.062848","OBJECT_ID":"2020-035Q","MEAN_MOTION_DOT":"0.00027332"},{"EPOCH":"2023-02-14T15:45:26.678592","NORAD_CAT_ID":"45672","OBJECT_ID":"2020-035R","MEAN_MOTION_DOT":"-0.00000095","APOAPSIS":"548.351","MEAN_ANOMALY":"276.1149","SEMIMAJOR_AXIS":"6925.378","TLE_LINE2":"2 45672  53.0532  20.1617 0001600  84.0022 276.1149 15.06390504150485","REV_AT_EPOCH":"15048","FILE":"3792084","BSTAR":"0.00001252800000","ELEMENT_SET_NO":"999","ARG_OF_PERICENTER":"84.0022","ECCENTRICITY":"0.00016000","LAUNCH_DATE":"2020-06-04","MEAN_MOTION":"15.06390504","GP_ID":"225430485","RCS_SIZE":"LARGE","RA_OF_ASC_NODE":"20.1617","SITE":"AFETR","PERIOD":"95.593","MEAN_MOTION_DDOT":"0.0000000000000","OBJECT_TYPE":"PAYLOAD","DECAY_DATE":null,"MEAN_ELEMENT_THEORY":"SGP4","REF_FRAME":"TEME","OBJECT_NAME":"STARLINK-1455","CENTER_NAME":"EARTH","TLE_LINE1":"1 45672U 20035R   23045.65655878 -.00000095  00000-0  12528-4 0  9995","CLASSIFICATION_TYPE":"U","INCLINATION":"53.0532","EPHEMERIS_TYPE":"0","COUNTRY_CODE":"US","PERIAPSIS":"546.135","TIME_SYSTEM":"UTC"}];
